{"type": "FeatureCollection", "features": [ {"type": "Feature", "properties": {"norad_id": 37867, "name": "COSMOS 2476 (744)", "group": "gnss", "lat": 5.4284812300997425, "lon": -103.23564800393162, "alt_km": 19098.860277259355, "timestamp": "2025-12-09T14:52:26.404232+00:00", "meta": {"OBJECT_NAME": "COSMOS 2476 (744)", "OBJECT_ID": "2011-064A", "EPOCH": "2025-12-08T12:40:16.683168", "MEAN_MOTION": 2.131013, "ECCENTRICITY": 0.00241182, "INCLINATION": 65.16, "RA_OF_ASC_NODE": 79.314, "ARG_OF_PERICENTER": 233.9995, "MEAN_ANOMALY": 182.6426, "EPHEMERIS_TYPE": 0, "CLASSIFICATION_TYPE": "U", "NORAD_CAT_ID": 37867, "ELEMENT_SET_NO": 999, "REV_AT_EPOCH": 10970, "BSTAR": 0, "MEAN_MOTION_DOT": -1.2e-07, "MEAN_MOTION_DDOT": 0}, "tle": {"line1": "1 37867U 11064A   25342.52797087 -.00000012  00000+0  00000+0 0  9996", "line2": "2 37867  65.1600  79.3140 0024118 233.9995 182.6426  2.13101300109708"}}, "geometry": {"type": "Point", "coordinates": [-103.23564800393162, 5.4284812300997425]}}, {"type": "Feature", "properties": {"norad_id": 37868, "name": "COSMOS 2477 (745)", "group": "gnss", "lat": -4.249754084077994, "lon": 77.39211124052925, "alt_km": 19158.754092880492, "timestamp": "2025-12-09T14:52:26.404245+00:00", "meta": {"OBJECT_NAME": "COSMOS 2477 (745)", "OBJECT_ID": "2011-064B", "EPOCH": "2025-12-09T06:11:12.657696", "MEAN_MOTION": 2.13102656, "ECCENTRICITY": 0.00210721, "INCLINATION": 65.167, "RA_OF_ASC_NODE": 79.367, "ARG_OF_PERICENTER": 234.1716, "MEAN_ANOMALY": 203.2692, "EPHEMERIS_TYPE": 0, "CLASSIFICATION_TYPE": "U", "NORAD_CAT_ID": 37868, "ELEMENT_SET_NO": 999, "REV_AT_EPOCH": 10971, "BSTAR": 0, "MEAN_MOTION_DOT": -1.4e-07, "MEAN_MOTION_DDOT": 0}, "tle": {"line1": "1 37868U 11064B   25343.25778539 -.00000014  00000+0  00000+0 0  9991", "line2": "2 37868  65.1670  79.3670 0021072 234.1716 203.2692  2.13102656109715"}}, "geometry": {"type": "Point", "coordinates": [77.39211124052925, -4.249754084077994]}}, {"type": "Feature", "properties": {"norad_id": 37869, "name": "COSMOS 2475 (743)", "group": "gnss", "lat": -42.95633891350459, "lon": 53.891365373694704, "alt_km": 19105.051592095864, "timestamp": "2025-12-09T14:52:26.404271+00:00", "meta": {"OBJECT_NAME": "COSMOS 2475 (743)", "OBJECT_ID": "2011-064C", "EPOCH": "2025-12-09T06:02:05.700768", "MEAN_MOTION": 2.13101306, "ECCENTRICITY": 0.00260807, "INCLINATION": 65.1742, "RA_OF_ASC_NODE": 79.3871, "ARG_OF_PERICENTER": 248.2695, "MEAN_ANOMALY": 140.2782, "EPHEMERIS_TYPE": 0, "CLASSIFICATION_TYPE": "U", "NORAD_CAT_ID": 37869, "ELEMENT_SET_NO": 999, "REV_AT_EPOCH": 10972, "BSTAR": 0, "MEAN_MOTION_DOT": -1.3e-07, "MEAN_MOTION_DDOT": 0}, "tle": {"line1": "1 37869U 11064C   25343.25145487 -.00000013  00000+0  00000+0 0  9991", "line2": "2 37869  65.1742  79.3871 0026080 248.2695 140.2782  2.13101306109727"}}, "geometry": {"type": "Point", "coordinates": [53.891365373694704, -42.95633891350459]}}, {"type": "Feature", "properties": {"norad_id": 37948, "name": "BEIDOU-2 IGSO-5 (C10)", "group": "gnss", "lat": 40.40257115699129, "lon": 43.99698629952925, "alt_km": 35873.34881833609, "timestamp": "2025-12-09T14:52:26.404294+00:00", "meta": {"OBJECT_NAME": "BEIDOU-2 IGSO-5 (C10)", "OBJECT_ID": "2011-073A", "EPOCH": "2025-12-07T19:12:14.882400", "MEAN_MOTION": 1.00291658, "ECCENTRICITY": 0.01104068, "INCLINATION": 48.0298, "RA_OF_ASC_NODE": 273.9181, "ARG_OF_PERICENTER": 222.1784, "MEAN_ANOMALY": 321.4594, "EPHEMERIS_TYPE": 0, "CLASSIFICATION_TYPE": "U", "NORAD_CAT_ID": 37948, "ELEMENT_SET_NO": 999, "REV_AT_EPOCH": 5121, "BSTAR": 0, "MEAN_MOTION_DOT": -1.91e-06, "MEAN_MOTION_DDOT": 0}, "tle": {"line1": "1 37948U 11073A   25341.80017225 -.00000191  00000+0  00000+0 0  9993", "line2": "2 37948  48.0298 273.9181 0110406 222.1784 321.4594  1.00291658 51212"}}, "geometry": {"type": "Point", "coordinates": [43.99698629952925, 40.40257115699129]}}, {"type": "Feature", "properties": {"norad_id": 37951, "name": "LUCH 5A (SDCM/PRN 140)", "group": "gnss", "lat": 4.402813203713129, "lon": 108.44906973507719, "alt_km": 35805.126225628694, "timestamp": "2025-12-09T14:52:26.404308+00:00", "meta": {"OBJECT_NAME": "LUCH 5A (SDCM/PRN 140)", "OBJECT_ID": "2011-074B", "EPOCH": "2025-12-09T07:03:50.645088", "MEAN_MOTION": 1.00274236, "ECCENTRICITY": 0.00057407, "INCLINATION": 8.2713, "RA_OF_ASC_NODE": 76.6348, "ARG_OF_PERICENTER": 178.6618, "MEAN_ANOMALY": 95.983, "EPHEMERIS_TYPE": 0, "CLASSIFICATION_TYPE": "U", "NORAD_CAT_ID": 37951, "ELEMENT_SET_NO": 999, "REV_AT_EPOCH": 5114, "BSTAR": 0, "MEAN_MOTION_DOT": -4.8e-07, "MEAN_MOTION_DDOT": 0}, "tle": {"line1": "1 37951U 11074B   25343.29433617 -.00000048  00000+0  00000+0 0  9991", "line2": "2 37951   8.2713  76.6348 0005740 178.6618  95.9830  1.00274236 51145"}}, "geometry": {"type": "Point", "coordinates": [108.44906973507719, 4.402813203713129]}}, {"type": "Feature", "properties": {"norad_id": 38091, "name": "BEIDOU-2 G5 (C05)", "group": "gnss", "lat": -2.9119495127765003, "lon": 0.6230448508015645, "alt_km": 35762.559871916535, "timestamp": "2025-12-09T14:52:26.404323+00:00", "meta": {"OBJECT_NAME": "BEIDOU-2 G5 (C05)", "OBJECT_ID": "2012-008A", "EPOCH": "2025-12-09T03:34:44.021568", "MEAN_MOTION": 1.00274149, "ECCENTRICITY": 0.00125198, "INCLINATION": 3.1, "RA_OF_ASC_NODE": 70.7096, "ARG_OF_PERICENTER": 226.0989, "MEAN_ANOMALY": 253.7636, "EPHEMERIS_TYPE": 0, "CLASSIFICATION_TYPE": "U", "NORAD_CAT_ID": 38091, "ELEMENT_SET_NO": 999, "REV_AT_EPOCH": 5046, "BSTAR": 0, "MEAN_MOTION_DOT": 5.8e-07, "MEAN_MOTION_DDOT": 0}, "tle": {"line1": "1 38091U 12008A   25343.14912062  .00000058  00000+0  00000+0 0  9995", "line2": "2 38091   3.1000  70.7096 0012519 226.0989 253.7636  1.00274149 50465"}}, "geometry": {"type": "Point", "coordinates": [0.6230448508015645, -2.9119495127765003]}}, {"type": "Feature", "properties": {"norad_id": 38250, "name": "BEIDOU-2 M3 (C11)", "group": "gnss", "lat": -12.562209294259148, "lon": -57.425737297005234, "alt_km": 21507.734345657245, "timestamp": "2025-12-09T14:52:26.404336+00:00", "meta": {"OBJECT_NAME": "BEIDOU-2 M3 (C11)", "OBJECT_ID": "2012-018A", "EPOCH": "2025-12-09T02:31:53.120352", "MEAN_MOTION": 1.86229518, "ECCENTRICITY": 0.00244853, "INCLINATION": 55.923, "RA_OF_ASC_NODE": 311.2799, "ARG_OF_PERICENTER": 273.6556, "MEAN_ANOMALY": 86.0527, "EPHEMERIS_TYPE": 0, "CLASSIFICATION_TYPE": "U", "NORAD_CAT_ID": 38250, "ELEMENT_SET_NO": 999, "REV_AT_EPOCH": 9240, "BSTAR": 0, "MEAN_MOTION_DOT": -7.5e-07, "MEAN_MOTION_DDOT": 0}, "tle": {"line1": "1 38250U 12018A   25343.10547593 -.00000075  00000+0  00000+0 0  9992", "line2": "2 38250  55.9230 311.2799 0024485 273.6556  86.0527  1.86229518 92408"}}, "geometry": {"type": "Point", "coordinates": [-57.425737297005234, -12.562209294259148]}}, {"type": "Feature", "properties": {"norad_id": 38251, "name": "BEIDOU-2 M4 (C12)", "group": "gnss", "lat": 24.701671139154207, "lon": -31.32717164040494, "alt_km": 21542.69426415379, "timestamp": "2025-12-09T14:52:26.404350+00:00", "meta": {"OBJECT_NAME": "BEIDOU-2 M4 (C12)", "OBJECT_ID": "2012-018B", "EPOCH": "2025-12-09T00:54:01.831680", "MEAN_MOTION": 1.86229294, "ECCENTRICITY": 0.00156482, "INCLINATION": 55.8248, "RA_OF_ASC_NODE": 310.5114, "ARG_OF_PERICENTER": 276.694, "MEAN_ANOMALY": 83.1162, "EPHEMERIS_TYPE": 0, "CLASSIFICATION_TYPE": "U", "NORAD_CAT_ID": 38251, "ELEMENT_SET_NO": 999, "REV_AT_EPOCH": 9240, "BSTAR": 0, "MEAN_MOTION_DOT": -7.4e-07, "MEAN_MOTION_DDOT": 0}, "tle": {"line1": "1 38251U 12018B   25343.03752120 -.00000074  00000+0  00000+0 0  9998", "line2": "2 38251  55.8248 310.5114 0015648 276.6940  83.1162  1.86229294 92405"}}, "geometry": {"type": "Point", "coordinates": [-31.32717164040494, 24.701671139154207]}}, {"type": "Feature", "properties": {"norad_id": 38652, "name": "SES-5 (EGNOS/PRN 136)", "group": "gnss", "lat": -0.00693117331412471, "lon": -53.28304763376326, "alt_km": 35779.79994860214, "timestamp": "2025-12-09T14:52:26.404362+00:00", "meta": {"OBJECT_NAME": "SES-5 (EGNOS/PRN 136)", "OBJECT_ID": "2012-036A", "EPOCH": "2025-12-09T03:19:30.478944", "MEAN_MOTION": 1.00272252, "ECCENTRICITY": 0.00021386, "INCLINATION": 0.0588, "RA_OF_ASC_NODE": 304.164, "ARG_OF_PERICENTER": 315.0796, "MEAN_ANOMALY": 233.7504, "EPHEMERIS_TYPE": 0, "CLASSIFICATION_TYPE": "U", "NORAD_CAT_ID": 38652, "ELEMENT_SET_NO": 999, "REV_AT_EPOCH": 4256, "BSTAR": 0, "MEAN_MOTION_DOT": 3.6e-07, "MEAN_MOTION_DDOT": 0}, "tle": {"line1": "1 38652U 12036A   25343.13854721  .00000036  00000+0  00000+0 0  9991", "line2": "2 38652   0.0588 304.1640 0002138 315.0796 233.7504  1.00272252 42562"}}, "geometry": {"type": "Point", "coordinates": [-53.28304763376326, -0.00693117331412471]}}, {"type": "Feature", "properties": {"norad_id": 38775, "name": "BEIDOU-2 M6 (C14)", "group": "gnss", "lat": -35.3938395219368, "lon": -82.64696835759892, "alt_km": 21548.498790782145, "timestamp": "2025-12-09T14:52:26.404374+00:00", "meta": {"OBJECT_NAME": "BEIDOU-2 M6 (C14)", "OBJECT_ID": "2012-050B", "EPOCH": "2025-12-08T05:04:33.479040", "MEAN_MOTION": 1.86230723, "ECCENTRICITY": 0.00110356, "INCLINATION": 56.3747, "RA_OF_ASC_NODE": 69.2178, "ARG_OF_PERICENTER": 345.3738, "MEAN_ANOMALY": 14.6151, "EPHEMERIS_TYPE": 0, "CLASSIFICATION_TYPE": "U", "NORAD_CAT_ID": 38775, "ELEMENT_SET_NO": 999, "REV_AT_EPOCH": 8975, "BSTAR": 0, "MEAN_MOTION_DOT": -4.4e-07, "MEAN_MOTION_DDOT": 0}, "tle": {"line1": "1 38775U 12050B   25342.21149860 -.00000044  00000+0  00000+0 0  9992", "line2": "2 38775  56.3747  69.2178 0011035 345.3738  14.6151  1.86230723 89759"}}, "geometry": {"type": "Point", "coordinates": [-82.64696835759892, -35.3938395219368]}}]}